NAYIF-1 (EO-88)         
1 42017U 17008BX  20111.86100062  .00001718  00000-0  68903-4 0  9995
2 42017  97.3639 180.2557 0006968 152.2691 207.8920 15.26339243176769
MAX VALIER SAT          
1 42778U 17036P   20111.11390408  .00000696  00000-0  32957-4 0  9997
2 42778  97.3111 166.3463 0011075 220.9679 139.0727 15.22515130156859
RADFXSAT (FOX-1B)       
1 43017U 17073E   20111.74357567  .00000325  00000-0  31263-4 0  9991
2 43017  97.7251  26.2026 0255833 238.2360 119.3698 14.78885819130635
FOX-1D (AO-92)          
1 43137U 18004AC  20111.24746764  .00000938  00000-0  41683-4 0  9992
2 43137  97.4493 182.7944 0007538 257.8895 102.1497 15.24012853126170
DIWATA-2B               
1 43678U 18084H   20111.85068384  .00000160  00000-0  21643-4 0  9993
2 43678  97.8742 230.2846 0010527  15.4576 344.6941 14.91622870 80431
ES'HAIL 2               
1 43700U 18090A   20111.48730734  .00000138  00000-0  00000-0 0  9995
2 43700   0.0416  78.8497 0002615 346.6750 344.7498  1.00274941  5377
FOX-1CLIFF (AO-95)      
1 43770U 18099N   20111.87982826  .00000705  00000-0  69697-4 0  9996
2 43770  97.7091 184.2540 0015314  35.0799 325.1426 14.94953555 75316
ITASAT 1                
1 43786U 18099AE  20111.68913874  .00000566  00000-0  56462-4 0  9990
2 43786  97.7108 184.4446 0015874  29.4876 330.7237 14.95298980 75309
JY1SAT (JO-97)          
1 43803U 18099AX  20111.84416315 -.00000071  00000-0 -12244-5 0  9990
2 43803  97.7066 184.4302 0015811  28.9047 331.3046 14.95467694 75325
PSAT2 (NO-104)          
1 44354U 19036R   20111.15986388  .00014423  00000-0  21354-3 0  9994
2 44354  28.5304  43.2164 0368206  48.8542 314.3225 15.02531076 45043
BRICSAT2 (NO-103)       
1 44355U 19036S   20110.96503239  .00026132  00000-0  37401-3 0  9993
2 44355  28.5306  38.7118 0350274  56.1641 307.1785 15.07049123 45067
JAISAT-1                
1 44419U 19038F   20111.61046693  .00000936  00000-0  57010-4 0  9998
2 44419  97.5332  73.9081 0020953 334.3434  25.6756 15.12693239 43856
DUCHIFAT-3              
1 44854U 19089C   20111.94437595  .00000403  00000-0  39007-4 0  9993
2 44854  36.9671  78.2080 0009332 316.0668  43.9337 14.99027185 19668
ORBITAL FACTORY 2 (OF-2)
1 45113U 19071C   20111.73603748  .00002578  00000-0  90738-4 0  9998
2 45113  51.6428 282.3218 0012903 207.2572 152.7734 15.33139638 12271
HUSKYSAT-1              
1 45119U 19071J   20111.85332748  .00001963  00000-0  71376-4 0  9990
2 45119  51.6436 281.6057 0012218 203.6798 156.3623 15.33377244 12283
